SXODC_L_00015177-17
1 50087U 24775CM  26070.40875000  .00000000  00000+0  00000-0 0  9993
2 50087  30.0000 188.0119 0000000   0.0000 144.7122 11.22032360    15
SXODC_L_00015177-18
1 50088U 26208CV  26070.40875000  .00000000  00000+0  00000-0 0  9997
2 50088  30.0000 188.0119 0000000   0.0000 152.7122 11.22032360    15
SXODC_L_00015177-19
1 50089U 22889AH  26070.40875000  .00000000  00000+0  00000-0 0  9999
2 50089  30.0000 188.0119 0000000   0.0000 160.7122 11.22032360    15
SXODC_L_00015177-20
1 50090U 24739CM  26070.40875000  .00000000  00000+0  00000-0 0  9997
2 50090  30.0000 188.0119 0000000   0.0000 168.7122 11.22032360    15
SXODC_L_00015177-21
1 50091U 26899YV  26070.40875000  .00000000  00000+0  00000-0 0  9997
2 50091  30.0000 188.0119 0000000   0.0000 176.7122 11.22032360    15
SXODC_L_00015177-22
1 50092U 25446OW  26070.40875000  .00000000  00000+0  00000-0 0  9995
2 50092  30.0000 188.0119 0000000   0.0000 184.7122 11.22032360    15
SXODC_L_00015177-23
1 50093U 25298FL  26070.40875000  .00000000  00000+0  00000-0 0  9991
2 50093  30.0000 188.0119 0000000   0.0000 192.7122 11.22032360    15
SXODC_L_00015177-24
1 50094U 23566BQ  26070.40875000  .00000000  00000+0  00000-0 0  9998
2 50094  30.0000 188.0119 0000000   0.0000 200.7122 11.22032360    16
SXODC_L_00015177-25
1 50095U 25283CK  26070.40875000  .00000000  00000+0  00000-0 0  9997
2 50095  30.0000 188.0119 0000000   0.0000 208.7122 11.22032360    15
SXODC_L_00015177-26
1 50096U 24860VV  26070.40875000  .00000000  00000+0  00000-0 0  9998
2 50096  30.0000 188.0119 0000000   0.0000 216.7122 11.22032360    15
SXODC_L_00015177-27
1 50097U 25640OO  26070.40875000  .00000000  00000+0  00000-0 0  9996
2 50097  30.0000 188.0119 0000000   0.0000 224.7122 11.22032360    15
SXODC_L_00015177-28
1 50098U 26668WT  26070.40875000  .00000000  00000+0  00000-0 0  9998
2 50098  30.0000 188.0119 0000000   0.0000 232.7122 11.22032360    15
SXODC_L_00015177-29
1 50099U 24776VM  26070.40875000  .00000000  00000+0  00000-0 0  9997
2 50099  30.0000 188.0119 0000000   0.0000 240.7122 11.22032360    15
SXODC_L_00015177-30
1 50100U 24106OP  26070.40875000  .00000000  00000+0  00000-0 0  9997
2 50100  30.0000 188.0119 0000000   0.0000 248.7122 11.22032360    16
SXODC_L_00015177-31
1 50101U 24543ZI  26070.40875000  .00000000  00000+0  00000-0 0  9993
2 50101  30.0000 188.0119 0000000   0.0000 256.7122 11.22032360    16
SXODC_L_00015177-32
1 50102U 26023GJ  26070.40875000  .00000000  00000+0  00000-0 0  9999
2 50102  30.0000 188.0119 0000000   0.0000 264.7122 11.22032360    16
SXODC_L_00015177-33
1 50103U 26813RX  26070.40875000  .00000000  00000+0  00000-0 0  9997
2 50103  30.0000 188.0119 0000000   0.0000 272.7122 11.22032360    16
SXODC_L_00015177-34
1 50104U 25290ZG  26070.40875000  .00000000  00000+0  00000-0 0  9996
2 50104  30.0000 188.0119 0000000   0.0000 280.7122 11.22032360    16
SXODC_L_00015177-35
1 50105U 24432ZG  26070.40875000  .00000000  00000+0  00000-0 0  9994
2 50105  30.0000 188.0119 0000000   0.0000 288.7122 11.22032360    15
SXODC_L_00015177-36
1 50106U 26514QJ  26070.40875000  .00000000  00000+0  00000-0 0  9998
2 50106  30.0000 188.0119 0000000   0.0000 296.7122 11.22032360    15
SXODC_L_00015177-37
1 50107U 23816GB  26070.40875000  .00000000  00000+0  00000-0 0  9991
2 50107  30.0000 188.0119 0000000   0.0000 304.7122 11.22032360    16
SXODC_L_00015177-38
1 50108U 24880ML  26070.40875000  .00000000  00000+0  00000-0 0  9994
2 50108  30.0000 188.0119 0000000   0.0000 312.7122 11.22032360    16
SXODC_L_00015177-39
1 50109U 24728ER  26070.40875000  .00000000  00000+0  00000-0 0  9996
2 50109  30.0000 188.0119 0000000   0.0000 320.7122 11.22032360    16
SXODC_L_00015177-40
1 50110U 26489NY  26070.40875000  .00000000  00000+0  00000-0 0  9994
2 50110  30.0000 188.0119 0000000   0.0000 328.7122 11.22032360    16
SXODC_L_00015177-41
1 50111U 22843UJ  26070.40875000  .00000000  00000+0  00000-0 0  9995
2 50111  30.0000 188.0119 0000000   0.0000 336.7122 11.22032360    16
SXODC_L_00015177-42
1 50112U 22632PZ  26070.40875000  .00000000  00000+0  00000-0 0  9992
2 50112  30.0000 188.0119 0000000   0.0000 344.7122 11.22032360    16
SXODC_L_00015177-43
1 50113U 22345IP  26070.40875000  .00000000  00000+0  00000-0 0  9994
2 50113  30.0000 188.0119 0000000   0.0000 352.7122 11.22032360    16
SXODC_L_00015177-44
1 50114U 24949KI  26070.40875000  .00000000  00000+0  00000-0 0  9997
2 50114  30.0000 188.0119 0000000   0.0000   0.7122 11.22032360    17
SXODC_L_00015177-45
1 50115U 24883KV  26070.40875000  .00000000  00000+0  00000-0 0  9995
2 50115  30.0000 188.0119 0000000   0.0000   8.7122 11.22032360    16
SXODC_L_00015178-01
1 50116U 22348AT  26070.40875000  .00000000  00000+0  00000-0 0  9990
2 50116  30.0000 189.0801 0000000   0.0000  16.8071 11.22032360    19
SXODC_L_00015178-02
1 50117U 26980CA  26070.40875000  .00000000  00000+0  00000-0 0  9997
2 50117  30.0000 189.0801 0000000   0.0000  24.8071 11.22032360    19
SXODC_L_00015178-03
1 50118U 22301MX  26070.40875000  .00000000  00000+0  00000-0 0  9991
2 50118  30.0000 189.0801 0000000   0.0000  32.8071 11.22032360    19
SXODC_L_00015178-04
1 50119U 26291OY  26070.40875000  .00000000  00000+0  00000-0 0  9994
2 50119  30.0000 189.0801 0000000   0.0000  40.8071 11.22032360    19
SXODC_L_00015178-05
1 50120U 26505UK  26070.40875000  .00000000  00000+0  00000-0 0  9994
2 50120  30.0000 189.0801 0000000   0.0000  48.8071 11.22032360    19
SXODC_L_00015178-06
1 50121U 25262VP  26070.40875000  .00000000  00000+0  00000-0 0  9994
2 50121  30.0000 189.0801 0000000   0.0000  56.8071 11.22032360    19
SXODC_L_00015178-07
1 50122U 22620P   26070.40875000  .00000000  00000+0  00000-0 0  9990
2 50122  30.0000 189.0801 0000000   0.0000  64.8071 11.22032360    19
SXODC_L_00015178-08
1 50123U 25680TF  26070.40875000  .00000000  00000+0  00000-0 0  9990
2 50123  30.0000 189.0801 0000000   0.0000  72.8071 11.22032360    19
SXODC_L_00015178-09
1 50124U 22856UX  26070.40875000  .00000000  00000+0  00000-0 0  9993
2 50124  30.0000 189.0801 0000000   0.0000  80.8071 11.22032360    19
SXODC_L_00015178-10
1 50125U 25778QI  26070.40875000  .00000000  00000+0  00000-0 0  9990
2 50125  30.0000 189.0801 0000000   0.0000  88.8071 11.22032360    18
SXODC_L_00015178-11
1 50126U 22583FV  26070.40875000  .00000000  00000+0  00000-0 0  9992
2 50126  30.0000 189.0801 0000000   0.0000  96.8071 11.22032360    18
SXODC_L_00015178-12
1 50127U 24689CB  26070.40875000  .00000000  00000+0  00000-0 0  9992
2 50127  30.0000 189.0801 0000000   0.0000 104.8071 11.22032360    19
SXODC_L_00015178-13
1 50128U 25430XS  26070.40875000  .00000000  00000+0  00000-0 0  9998
2 50128  30.0000 189.0801 0000000   0.0000 112.8071 11.22032360    19
SXODC_L_00015178-14
1 50129U 24182OS  26070.40875000  .00000000  00000+0  00000-0 0  9992
2 50129  30.0000 189.0801 0000000   0.0000 120.8071 11.22032360    19
SXODC_L_00015178-15
1 50130U 25531JD  26070.40875000  .00000000  00000+0  00000-0 0  9993
2 50130  30.0000 189.0801 0000000   0.0000 128.8071 11.22032360    19
SXODC_L_00015178-16
1 50131U 26163HS  26070.40875000  .00000000  00000+0  00000-0 0  9996
2 50131  30.0000 189.0801 0000000   0.0000 136.8071 11.22032360    19
SXODC_L_00015178-17
1 50132U 22954QC  26070.40875000  .00000000  00000+0  00000-0 0  9991
2 50132  30.0000 189.0801 0000000   0.0000 144.8071 11.22032360    19
SXODC_L_00015178-18
1 50133U 26886BE  26070.40875000  .00000000  00000+0  00000-0 0  9990
2 50133  30.0000 189.0801 0000000   0.0000 152.8071 11.22032360    19
SXODC_L_00015178-19
1 50134U 22871C   26070.40875000  .00000000  00000+0  00000-0 0  9991
2 50134  30.0000 189.0801 0000000   0.0000 160.8071 11.22032360    19
SXODC_L_00015178-20
1 50135U 25509JU  26070.40875000  .00000000  00000+0  00000-0 0  9993
2 50135  30.0000 189.0801 0000000   0.0000 168.8071 11.22032360    18
SXODC_L_00015178-21
1 50136U 24304ZT  26070.40875000  .00000000  00000+0  00000-0 0  9996
2 50136  30.0000 189.0801 0000000   0.0000 176.8071 11.22032360    18
SXODC_L_00015178-22
1 50137U 24237DK  26070.40875000  .00000000  00000+0  00000-0 0  9992
2 50137  30.0000 189.0801 0000000   0.0000 184.8071 11.22032360    18
SXODC_L_00015178-23
1 50138U 23083TW  26070.40875000  .00000000  00000+0  00000-0 0  9991
2 50138  30.0000 189.0801 0000000   0.0000 192.8071 11.22032360    18
SXODC_L_00015178-24
1 50139U 24635DT  26070.40875000  .00000000  00000+0  00000-0 0  9996
2 50139  30.0000 189.0801 0000000   0.0000 200.8071 11.22032360    19
SXODC_L_00015178-25
1 50140U 24595BH  26070.40875000  .00000000  00000+0  00000-0 0  9993
2 50140  30.0000 189.0801 0000000   0.0000 208.8071 11.22032360    19
SXODC_L_00015178-26
1 50141U 26102IO  26070.40875000  .00000000  00000+0  00000-0 0  9990
2 50141  30.0000 189.0801 0000000   0.0000 216.8071 11.22032360    19
SXODC_L_00015178-27
1 50142U 24415ZC  26070.40875000  .00000000  00000+0  00000-0 0  9996
2 50142  30.0000 189.0801 0000000   0.0000 224.8071 11.22032360    19
SXODC_L_00015178-28
1 50143U 24572EV  26070.40875000  .00000000  00000+0  00000-0 0  9991
2 50143  30.0000 189.0801 0000000   0.0000 232.8071 11.22032360    19
SXODC_L_00015178-29
1 50144U 25013IX  26070.40875000  .00000000  00000+0  00000-0 0  9993
2 50144  30.0000 189.0801 0000000   0.0000 240.8071 11.22032360    19
SXODC_L_00015178-30
1 50145U 26558DG  26070.40875000  .00000000  00000+0  00000-0 0  9999
2 50145  30.0000 189.0801 0000000   0.0000 248.8071 11.22032360    18
SXODC_L_00015178-31
1 50146U 24308AS  26070.40875000  .00000000  00000+0  00000-0 0  9991
2 50146  30.0000 189.0801 0000000   0.0000 256.8071 11.22032360    18
SXODC_L_00015178-32
1 50147U 24643CH  26070.40875000  .00000000  00000+0  00000-0 0  9994
2 50147  30.0000 189.0801 0000000   0.0000 264.8071 11.22032360    18
SXODC_L_00015178-33
1 50148U 22615OE  26070.40875000  .00000000  00000+0  00000-0 0  9992
2 50148  30.0000 189.0801 0000000   0.0000 272.8071 11.22032360    18
